     3.02           N: GNSS NAV DATA    G: GPS              RINEX VERSION / TYPE
cnvtToRINEX 2.90.0  convertToRINEX OPR  25-Mar-19 08:17 UTC PGM / RUN BY / DATE 
----------------------------------------------------------- COMMENT             
GPSA   0.7451D-08 -0.1490D-07 -0.5960D-07  0.1192D-06       IONOSPHERIC CORR    
GPSB   0.8806D+05 -0.4915D+05 -0.1966D+06  0.3277D+06       IONOSPHERIC CORR    
GPUT  0.1862645149D-08 0.266453526D-14  61440 2036          TIME SYSTEM CORR    
    18                                                      LEAP SECONDS        
                                                            END OF HEADER       
G21 2019 01 17 22 00 00-0.267243012786D-03 0.693489710102D-11 0.000000000000D+00
     0.550000000000D+02-0.118187500000D+03 0.435803867266D-08 0.215199032274D+01
    -0.612810254097D-05 0.247206505155D-01 0.105146318674D-04 0.515355724335D+04
     0.424800000000D+06 0.368803739548D-06-0.661024667496D+00-0.819563865662D-07
     0.947024044564D+00 0.163500000000D+03-0.149197761712D+01-0.757888711964D-08
     0.375015620906D-10 0.100000000000D+01 0.203600000000D+04 0.000000000000D+00
     0.240000000000D+01 0.000000000000D+00-0.102445483208D-07 0.550000000000D+02
     0.417618000000D+06 0.400000000000D+01 0.000000000000D+00 0.000000000000D+00
G 2 2019 01 17 22 00 00-0.115813687444D-03-0.101181285572D-10 0.000000000000D+00
     0.120000000000D+02-0.822812500000D+02 0.432946605392D-08-0.207899049992D+01
    -0.425428152084D-05 0.187632977031D-01 0.987201929092D-05 0.515363647270D+04
     0.424800000000D+06 0.353902578354D-06-0.666328512103D+00-0.353902578354D-07
     0.953340943848D+00 0.181937500000D+03-0.178879852545D+01-0.763388941071D-08
     0.116076263614D-09 0.100000000000D+01 0.203600000000D+04 0.000000000000D+00
     0.240000000000D+01 0.000000000000D+00-0.204890966415D-07 0.120000000000D+02
     0.417618000000D+06 0.400000000000D+01 0.000000000000D+00 0.000000000000D+00
G29 2019 01 17 22 00 00 0.291046686471D-03-0.841282599140D-11 0.000000000000D+00
     0.440000000000D+02-0.890000000000D+02 0.407338395851D-08 0.527185755151D+00
    -0.468455255032D-05 0.624427222647D-03 0.360049307346D-05 0.515357778931D+04
     0.424800000000D+06-0.279396772385D-07-0.159002183088D+01 0.447034835815D-07
     0.984907547318D+00 0.321718750000D+03 0.149571822843D+01-0.813819613139D-08
    -0.326799326789D-09 0.100000000000D+01 0.203600000000D+04 0.000000000000D+00
     0.240000000000D+01 0.000000000000D+00-0.102445483208D-07 0.440000000000D+02
     0.417618000000D+06 0.400000000000D+01 0.000000000000D+00 0.000000000000D+00
G25 2019 01 17 22 00 00-0.707370229065D-03-0.545696821064D-11 0.000000000000D+00
     0.780000000000D+02 0.112375000000D+03 0.436482466961D-08 0.227192769658D+01
     0.569224357605D-05 0.801594450604D-02 0.411830842495D-05 0.515377135658D+04
     0.424800000000D+06-0.596046447754D-07-0.269737129559D+01-0.216066837311D-06
     0.972039557509D+00 0.304875000000D+03 0.849478170918D+00-0.812569561070D-08
     0.218937691062D-09 0.100000000000D+01 0.203600000000D+04 0.000000000000D+00
     0.240000000000D+01 0.000000000000D+00 0.558793544769D-08 0.780000000000D+02
     0.417618000000D+06 0.400000000000D+01 0.000000000000D+00 0.000000000000D+00
G31 2019 01 17 22 00 00 0.650524161756D-04-0.261479726760D-11 0.000000000000D+00
     0.800000000000D+02 0.847812500000D+02 0.434625246743D-08 0.285242624175D+01
     0.436604022980D-05 0.926058553159D-02 0.125635415316D-04 0.515355559349D+04
     0.424800000000D+06-0.169500708580D-06 0.256502741237D+01 0.111758708954D-07
     0.961180107410D+00 0.136718750000D+03-0.308592606349D-01-0.768567728217D-08
    -0.277154401736D-09 0.100000000000D+01 0.203600000000D+04 0.000000000000D+00
     0.240000000000D+01 0.000000000000D+00-0.135041773319D-07 0.800000000000D+02
     0.417618000000D+06 0.400000000000D+01 0.000000000000D+00 0.000000000000D+00
G12 2019 01 17 22 00 00 0.275533180684D-03-0.306954461848D-11 0.000000000000D+00
     0.620000000000D+02 0.988750000000D+02 0.408088427092D-08 0.257278123368D+01
     0.494532287121D-05 0.729896232951D-02 0.374391674995D-05 0.515371676445D+04
     0.424800000000D+06 0.391155481339D-07-0.263468929501D+01-0.137835741043D-06
     0.984513761956D+00 0.316437500000D+03 0.102594640052D+01-0.795568852922D-08
     0.152149194768D-09 0.100000000000D+01 0.203600000000D+04 0.000000000000D+00
     0.240000000000D+01 0.000000000000D+00-0.125728547573D-07 0.620000000000D+02
     0.417618000000D+06 0.400000000000D+01 0.000000000000D+00 0.000000000000D+00
G14 2019 01 17 22 00 00-0.929888337851D-04 0.682121026330D-12 0.000000000000D+00
     0.150000000000D+02-0.148437500000D+02 0.493949146393D-08-0.463128415546D+00
    -0.724568963051D-06 0.100544014713D-01 0.745244324207D-05 0.515365539932D+04
     0.424800000000D+06-0.614672899246D-07 0.156640398841D+01 0.949949026108D-07
     0.960162612775D+00 0.238968750000D+03-0.194965840516D+01-0.828820237975D-08
    -0.372515516767D-09 0.100000000000D+01 0.203600000000D+04 0.000000000000D+00
     0.240000000000D+01 0.000000000000D+00-0.977888703346D-08 0.150000000000D+02
     0.417618000000D+06 0.400000000000D+01 0.000000000000D+00 0.000000000000D+00
G32 2019 01 17 22 00 00-0.270145945251D-03 0.172803993337D-10 0.000000000000D+00
     0.440000000000D+02-0.144687500000D+02 0.501342311491D-08 0.557518398925D+00
    -0.825151801109D-06 0.247349333949D-02 0.687688589096D-05 0.515373796654D+04
     0.424800000000D+06 0.186264514923D-07 0.148070885863D+01 0.204890966415D-07
     0.956362808875D+00 0.245375000000D+03-0.263326576746D+01-0.820427031222D-08
    -0.348585948575D-09 0.100000000000D+01 0.203600000000D+04 0.000000000000D+00
     0.240000000000D+01 0.000000000000D+00 0.465661287308D-09 0.440000000000D+02
     0.417618000000D+06 0.400000000000D+01 0.000000000000D+00 0.000000000000D+00
G26 2019 01 17 22 00 00 0.992296263576D-04 0.105728759081D-10 0.000000000000D+00
     0.460000000000D+02 0.123375000000D+03 0.488413201513D-08 0.159438702921D+01
     0.661052763462D-05 0.353279616684D-02 0.426173210144D-05 0.515378830528D+04
     0.424800000000D+06 0.428408384323D-07-0.272355236949D+01 0.298023223877D-07
     0.953423875211D+00 0.292406250000D+03 0.926087372513D-01-0.849213944598D-08
     0.157149403046D-09 0.100000000000D+01 0.203600000000D+04 0.000000000000D+00
     0.240000000000D+01 0.000000000000D+00 0.745058059692D-08 0.460000000000D+02
     0.417618000000D+06 0.400000000000D+01 0.000000000000D+00 0.000000000000D+00
G12 2019 01 17 21 59 44 0.275531783700D-03-0.306954461848D-11 0.000000000000D+00
     0.900000000000D+01 0.988750000000D+02 0.408088427092D-08 0.257044792031D+01
     0.494532287121D-05 0.729896454141D-02 0.374391674995D-05 0.515371676064D+04
     0.424784000000D+06 0.391155481339D-07-0.263468916042D+01-0.137835741043D-06
     0.984513741475D+00 0.316437500000D+03 0.102594610940D+01-0.795568852922D-08
     0.152149194768D-09 0.100000000000D+01 0.203600000000D+04 0.000000000000D+00
     0.240000000000D+01 0.000000000000D+00-0.125728547573D-07 0.900000000000D+01
     0.417726000000D+06 0.400000000000D+01 0.000000000000D+00 0.000000000000D+00
G16 2019 01 17 22 00 00-0.133714638650D-04-0.238742359215D-11 0.000000000000D+00
     0.740000000000D+02 0.108531250000D+03 0.420553232016D-08 0.686688680323D+00
     0.587292015553D-05 0.104339654790D-01 0.374764204025D-05 0.515376376152D+04
     0.424800000000D+06-0.372529029846D-07-0.261578331563D+01 0.100582838058D-06
     0.984881729740D+00 0.316375000000D+03 0.528546656638D+00-0.828320217148D-08
     0.892894335490D-10 0.100000000000D+01 0.203600000000D+04 0.000000000000D+00
     0.240000000000D+01 0.000000000000D+00-0.107102096081D-07 0.740000000000D+02
     0.419592000000D+06 0.400000000000D+01 0.000000000000D+00 0.000000000000D+00
G 5 2019 01 17 21 59 44 0.840052962303D-06 0.113686837722D-12 0.000000000000D+00
     0.800000000000D+01 0.116562500000D+02 0.491520473801D-08 0.521741534778D+00
     0.713393092155D-06 0.556271150708D-02 0.767968595028D-05 0.515360690498D+04
     0.424784000000D+06-0.484287738800D-07 0.416781960962D+00 0.100582838058D-06
     0.949318694477D+00 0.225250000000D+03 0.719549394292D+00-0.823534303509D-08
     0.500377985609D-09 0.100000000000D+01 0.203600000000D+04 0.000000000000D+00
     0.240000000000D+01 0.000000000000D+00-0.111758708954D-07 0.800000000000D+01
     0.419748000000D+06 0.400000000000D+01 0.000000000000D+00 0.000000000000D+00
G23 2019 01 17 22 00 00-0.200209673494D-03 0.113686837722D-11 0.000000000000D+00
     0.670000000000D+02-0.221875000000D+02 0.524450416894D-08-0.163221260626D+01
    -0.120326876640D-05 0.127055087360D-01 0.588409602642D-05 0.515364759254D+04
     0.424800000000D+06 0.232830643654D-06 0.147074656353D+01-0.949949026108D-07
     0.942879702976D+00 0.249875000000D+03-0.230728139119D+01-0.822248535666D-08
    -0.182507602174D-09 0.100000000000D+01 0.203600000000D+04 0.000000000000D+00
     0.240000000000D+01 0.000000000000D+00-0.200234353542D-07 0.670000000000D+02
     0.422172000000D+06 0.400000000000D+01 0.000000000000D+00 0.000000000000D+00
G27 2019 01 17 22 00 00-0.508166849613D-04-0.670752342558D-11 0.000000000000D+00
     0.130000000000D+02-0.810312500000D+02 0.437446792843D-08-0.213043277948D+00
    -0.429898500443D-05 0.649905402679D-02 0.216998159885D-05 0.515363322830D+04
     0.424800000000D+06 0.745058059692D-07-0.165639858322D+01 0.109896063805D-06
     0.978078739351D+00 0.344406250000D+03 0.422308057934D+00-0.841392190219D-08
    -0.349657421778D-09 0.100000000000D+01 0.203600000000D+04 0.000000000000D+00
     0.240000000000D+01 0.000000000000D+00 0.139698386192D-08 0.130000000000D+02
     0.422508000000D+06 0.400000000000D+01 0.000000000000D+00 0.000000000000D+00
